start=new Date('2022-07-20T00:00:00.000Z').valueOf();
sats=[{"TIME_SYSTEM":"UTC","EPHEMERIS_TYPE":"0","DECAY_DATE":null,"REF_FRAME":"TEME","OBJECT_TYPE":"PAYLOAD","NORAD_CAT_ID":"51800","COUNTRY_CODE":"US","PERIOD":"95.437","SEMIMAJOR_AXIS":"6917.850","PERIAPSIS":"538.395","EPOCH":"2022-07-19T22:00:00.999936","MEAN_ELEMENT_THEORY":"SGP4","BSTAR":"-0.00388900000000","RA_OF_ASC_NODE":"194.2053","MEAN_MOTION_DOT":"-0.00061670","RCS_SIZE":"LARGE","OBJECT_NAME":"STARLINK-3600","MEAN_MOTION":"15.08850062","GP_ID":"208471969","ELEMENT_SET_NO":"999","MEAN_ANOMALY":"52.9505","CENTER_NAME":"EARTH","CLASSIFICATION_TYPE":"U","TLE_LINE2":"2 51800  53.2162 194.2053 0001908  56.5376  52.9505 15.08850062  1304","APOAPSIS":"541.035","INCLINATION":"53.2162","REV_AT_EPOCH":"130","ARG_OF_PERICENTER":"56.5376","TLE_LINE1":"1 51800U 22017AJ  22200.91667824 -.00061670  00000-0 -38890-2 0  9997","OBJECT_ID":"2022-017AJ","SITE":"AFWTR","ECCENTRICITY":"0.00019080","LAUNCH_DATE":"2022-02-25","FILE":"3517796","MEAN_MOTION_DDOT":"0.0000000000000"},{"MEAN_ELEMENT_THEORY":"SGP4","EPOCH":"2022-07-19T22:00:00.999936","RA_OF_ASC_NODE":"194.2052","BSTAR":"0.00465490000000","PERIAPSIS":"538.336","MEAN_MOTION_DOT":"0.00074519","RCS_SIZE":"LARGE","REF_FRAME":"TEME","DECAY_DATE":null,"OBJECT_TYPE":"PAYLOAD","EPHEMERIS_TYPE":"0","TIME_SYSTEM":"UTC","COUNTRY_CODE":"US","NORAD_CAT_ID":"51801","SEMIMAJOR_AXIS":"6917.971","PERIOD":"95.439","ECCENTRICITY":"0.00021670","MEAN_MOTION_DDOT":"0.0000000000000","LAUNCH_DATE":"2022-02-25","FILE":"3517796","TLE_LINE2":"2 51801  53.2155 194.2052 0002167  49.5532 345.0802 15.08810482  1308","CENTER_NAME":"EARTH","CLASSIFICATION_TYPE":"U","MEAN_ANOMALY":"345.0802","OBJECT_NAME":"STARLINK-3592","ELEMENT_SET_NO":"999","GP_ID":"208472219","MEAN_MOTION":"15.08810482","REV_AT_EPOCH":"130","APOAPSIS":"541.335","INCLINATION":"53.2155","TLE_LINE1":"1 51801U 22017AK  22200.91667824  .00074519  00000-0  46549-2 0  9992","SITE":"AFWTR","OBJECT_ID":"2022-017AK","ARG_OF_PERICENTER":"49.5532"},{"RCS_SIZE":"LARGE","MEAN_MOTION_DOT":"-0.00040945","PERIAPSIS":"538.396","BSTAR":"-0.00256850000000","RA_OF_ASC_NODE":"194.2147","EPOCH":"2022-07-19T22:00:00.999936","MEAN_ELEMENT_THEORY":"SGP4","PERIOD":"95.437","SEMIMAJOR_AXIS":"6917.852","NORAD_CAT_ID":"51802","COUNTRY_CODE":"US","TIME_SYSTEM":"UTC","EPHEMERIS_TYPE":"0","OBJECT_TYPE":"PAYLOAD","DECAY_DATE":null,"REF_FRAME":"TEME","FILE":"3517796","LAUNCH_DATE":"2022-02-25","MEAN_MOTION_DDOT":"0.0000000000000","ECCENTRICITY":"0.00019090","ARG_OF_PERICENTER":"45.0378","OBJECT_ID":"2022-017AL","TLE_LINE1":"1 51802U 22017AL  22200.91667824 -.00040945  00000-0 -25685-2 0  9999","SITE":"AFWTR","INCLINATION":"53.2175","APOAPSIS":"541.037","REV_AT_EPOCH":"130","MEAN_MOTION":"15.08849442","GP_ID":"208473471","ELEMENT_SET_NO":"999","OBJECT_NAME":"STARLINK-3557","CLASSIFICATION_TYPE":"U","CENTER_NAME":"EARTH","MEAN_ANOMALY":"244.4344","TLE_LINE2":"2 51802  53.2175 194.2147 0001909  45.0378 244.4344 15.08849442  1309"},{"MEAN_MOTION_DDOT":"0.0000000000000","LAUNCH_DATE":"2022-02-25","FILE":"3517796","ECCENTRICITY":"0.00018750","REV_AT_EPOCH":"130","INCLINATION":"53.2155","APOAPSIS":"541.072","TLE_LINE1":"1 51803U 22017AM  22200.91667824  .00013716  00000-0  87840-3 0  9996","SITE":"AFWTR","OBJECT_ID":"2022-017AM","ARG_OF_PERICENTER":"48.8655","TLE_LINE2":"2 51803  53.2155 194.2083 0001875  48.8655  45.7881 15.08830224  1304","MEAN_ANOMALY":"45.7881","CENTER_NAME":"EARTH","CLASSIFICATION_TYPE":"U","OBJECT_NAME":"STARLINK-3544","GP_ID":"208473722","MEAN_MOTION":"15.08830224","ELEMENT_SET_NO":"999","RCS_SIZE":"LARGE","MEAN_MOTION_DOT":"0.00013716","MEAN_ELEMENT_THEORY":"SGP4","EPOCH":"2022-07-19T22:00:00.999936","RA_OF_ASC_NODE":"194.2083","BSTAR":"0.00087840000000","PERIAPSIS":"538.478","COUNTRY_CODE":"US","NORAD_CAT_ID":"51803","SEMIMAJOR_AXIS":"6917.910","PERIOD":"95.438","REF_FRAME":"TEME","DECAY_DATE":null,"OBJECT_TYPE":"PAYLOAD","EPHEMERIS_TYPE":"0","TIME_SYSTEM":"UTC"},{"TLE_LINE2":"2 51804  53.2167 174.2030 0001257  87.1425 297.4767 15.08849603  1303","MEAN_ANOMALY":"297.4767","CENTER_NAME":"EARTH","CLASSIFICATION_TYPE":"U","OBJECT_NAME":"STARLINK-3601","GP_ID":"208472470","MEAN_MOTION":"15.08849603","ELEMENT_SET_NO":"999","REV_AT_EPOCH":"130","APOAPSIS":"540.586","INCLINATION":"53.2167","SITE":"AFWTR","TLE_LINE1":"1 51804U 22017AN  22200.91667824  .00016617  00000-0  10594-2 0  9991","OBJECT_ID":"2022-017AN","ARG_OF_PERICENTER":"87.1425","ECCENTRICITY":"0.00012570","MEAN_MOTION_DDOT":"0.0000000000000","LAUNCH_DATE":"2022-02-25","FILE":"3517796","REF_FRAME":"TEME","DECAY_DATE":null,"OBJECT_TYPE":"PAYLOAD","EPHEMERIS_TYPE":"0","TIME_SYSTEM":"UTC","COUNTRY_CODE":"US","NORAD_CAT_ID":"51804","SEMIMAJOR_AXIS":"6917.851","PERIOD":"95.437","MEAN_ELEMENT_THEORY":"SGP4","EPOCH":"2022-07-19T22:00:00.999936","RA_OF_ASC_NODE":"174.2030","BSTAR":"0.00105940000000","PERIAPSIS":"538.846","RCS_SIZE":"LARGE","MEAN_MOTION_DOT":"0.00016617"},{"COUNTRY_CODE":"US","NORAD_CAT_ID":"51805","SEMIMAJOR_AXIS":"6917.641","PERIOD":"95.433","EPHEMERIS_TYPE":"0","TIME_SYSTEM":"UTC","REF_FRAME":"TEME","DECAY_DATE":null,"OBJECT_TYPE":"PAYLOAD","MEAN_MOTION_DOT":"-0.00207262","RCS_SIZE":"LARGE","PERIAPSIS":"538.144","MEAN_ELEMENT_THEORY":"SGP4","EPOCH":"2022-07-19T22:00:00.999936","BSTAR":"-0.01335700000000","RA_OF_ASC_NODE":"174.2083","REV_AT_EPOCH":"130","APOAPSIS":"540.868","INCLINATION":"53.2157","TLE_LINE1":"1 51805U 22017AP  22200.91667824 -.00207262  00000-0 -13357-1 0  9991","SITE":"AFWTR","OBJECT_ID":"2022-017AP","ARG_OF_PERICENTER":"55.0861","OBJECT_NAME":"STARLINK-3605","MEAN_MOTION":"15.08918348","GP_ID":"208472720","ELEMENT_SET_NO":"999","TLE_LINE2":"2 51805  53.2157 174.2083 0001969  55.0861 349.6132 15.08918348  1308","CLASSIFICATION_TYPE":"U","MEAN_ANOMALY":"349.6132","CENTER_NAME":"EARTH","LAUNCH_DATE":"2022-02-25","FILE":"3517796","MEAN_MOTION_DDOT":"0.0000000000000","ECCENTRICITY":"0.00019690"},{"EPHEMERIS_TYPE":"0","TIME_SYSTEM":"UTC","OBJECT_TYPE":"PAYLOAD","REF_FRAME":"TEME","DECAY_DATE":null,"SEMIMAJOR_AXIS":"6917.895","PERIOD":"95.438","COUNTRY_CODE":"US","NORAD_CAT_ID":"51806","PERIAPSIS":"538.100","BSTAR":"0.00016667000000","RA_OF_ASC_NODE":"184.2066","MEAN_ELEMENT_THEORY":"SGP4","EPOCH":"2022-07-19T22:00:00.999936","RCS_SIZE":"LARGE","MEAN_MOTION_DOT":"0.00002365","ELEMENT_SET_NO":"999","GP_ID":"208472971","MEAN_MOTION":"15.08835253","OBJECT_NAME":"STARLINK-3581","TLE_LINE2":"2 51806  53.2176 184.2066 0002399  41.4031 288.2476 15.08835253 23461","CLASSIFICATION_TYPE":"U","MEAN_ANOMALY":"288.2476","CENTER_NAME":"EARTH","OBJECT_ID":"2022-017AQ","TLE_LINE1":"1 51806U 22017AQ  22200.91667824  .00002365  00000-0  16667-3 0  9996","SITE":"AFWTR","ARG_OF_PERICENTER":"41.4031","REV_AT_EPOCH":"2346","APOAPSIS":"541.420","INCLINATION":"53.2176","ECCENTRICITY":"0.00023990","FILE":"3517796","LAUNCH_DATE":"2022-02-25","MEAN_MOTION_DDOT":"0.0000000000000"},{"OBJECT_NAME":"STARLINK-3606","ELEMENT_SET_NO":"999","GP_ID":"208473222","MEAN_MOTION":"15.08815665","CLASSIFICATION_TYPE":"U","CENTER_NAME":"EARTH","MEAN_ANOMALY":"244.8458","TLE_LINE2":"2 51807  53.2171 184.2142 0001994  44.8028 244.8458 15.08815665  1307","INCLINATION":"53.2171","APOAPSIS":"541.199","REV_AT_EPOCH":"130","ARG_OF_PERICENTER":"44.8028","TLE_LINE1":"1 51807U 22017AR  22200.91667824  .00040883  00000-0  25737-2 0  9991","OBJECT_ID":"2022-017AR","SITE":"AFWTR","ECCENTRICITY":"0.00019940","LAUNCH_DATE":"2022-02-25","FILE":"3517796","MEAN_MOTION_DDOT":"0.0000000000000","TIME_SYSTEM":"UTC","EPHEMERIS_TYPE":"0","DECAY_DATE":null,"REF_FRAME":"TEME","OBJECT_TYPE":"PAYLOAD","NORAD_CAT_ID":"51807","COUNTRY_CODE":"US","PERIOD":"95.439","SEMIMAJOR_AXIS":"6917.955","PERIAPSIS":"538.440","EPOCH":"2022-07-19T22:00:00.999936","MEAN_ELEMENT_THEORY":"SGP4","BSTAR":"0.00257370000000","RA_OF_ASC_NODE":"184.2142","MEAN_MOTION_DOT":"0.00040883","RCS_SIZE":"LARGE"},{"TIME_SYSTEM":"UTC","EPHEMERIS_TYPE":"0","DECAY_DATE":null,"REF_FRAME":"TEME","OBJECT_TYPE":"PAYLOAD","NORAD_CAT_ID":"51808","COUNTRY_CODE":"US","PERIOD":"95.435","SEMIMAJOR_AXIS":"6917.739","PERIAPSIS":"538.173","EPOCH":"2022-07-19T22:00:00.999936","MEAN_ELEMENT_THEORY":"SGP4","BSTAR":"-0.01080500000000","RA_OF_ASC_NODE":"184.2132","MEAN_MOTION_DOT":"-0.00168477","RCS_SIZE":"LARGE","OBJECT_NAME":"STARLINK-3609","MEAN_MOTION":"15.08886415","GP_ID":"208471970","ELEMENT_SET_NO":"999","CENTER_NAME":"EARTH","MEAN_ANOMALY":"318.4499","CLASSIFICATION_TYPE":"U","TLE_LINE2":"2 51808  53.2185 184.2132 0002068  51.2767 318.4499 15.08886415  1301","INCLINATION":"53.2185","APOAPSIS":"541.034","REV_AT_EPOCH":"130","ARG_OF_PERICENTER":"51.2767","TLE_LINE1":"1 51808U 22017AS  22200.91667824 -.00168477  00000-0 -10805-1 0  9993","SITE":"AFWTR","OBJECT_ID":"2022-017AS","ECCENTRICITY":"0.00020680","LAUNCH_DATE":"2022-02-25","FILE":"3517796","MEAN_MOTION_DDOT":"0.0000000000000"},{"GP_ID":"208472220","MEAN_MOTION":"15.08834579","ELEMENT_SET_NO":"999","OBJECT_NAME":"STARLINK-3607","TLE_LINE2":"2 51809  53.2175 184.2069 0002397  39.2046 270.4463 15.08834579  1303","MEAN_ANOMALY":"270.4463","CENTER_NAME":"EARTH","CLASSIFICATION_TYPE":"U","TLE_LINE1":"1 51809U 22017AT  22200.91667824  .00003286  00000-0  22448-3 0  9996","SITE":"AFWTR","OBJECT_ID":"2022-017AT","ARG_OF_PERICENTER":"39.2046","REV_AT_EPOCH":"130","APOAPSIS":"541.420","INCLINATION":"53.2175","ECCENTRICITY":"0.00023970","FILE":"3517796","LAUNCH_DATE":"2022-02-25","MEAN_MOTION_DDOT":"0.0000000000000","EPHEMERIS_TYPE":"0","TIME_SYSTEM":"UTC","OBJECT_TYPE":"PAYLOAD","REF_FRAME":"TEME","DECAY_DATE":null,"SEMIMAJOR_AXIS":"6917.897","PERIOD":"95.438","COUNTRY_CODE":"US","NORAD_CAT_ID":"51809","PERIAPSIS":"538.104","BSTAR":"0.00022448000000","RA_OF_ASC_NODE":"184.2069","MEAN_ELEMENT_THEORY":"SGP4","EPOCH":"2022-07-19T22:00:00.999936","MEAN_MOTION_DOT":"0.00003286","RCS_SIZE":"LARGE"}];
